{
  "type": "FeatureCollection",
  "features": [
    {
      "type": "Feature",
      "properties": {
        "OBJECT_NAME": "OPS 7218 (TRANSIT 16)",
        "OBJECT_ID": "1967-048A",
        "EPOCH": "2025-11-30T01:45:12.428064",
        "MEAN_MOTION": 13.5071854,
        "ECCENTRICITY": 0.0021247,
        "INCLINATION": 89.6739,
        "RA_OF_ASC_NODE": 354.4364,
        "ARG_OF_PERICENTER": 148.3352,
        "MEAN_ANOMALY": 222.7591,
        "EPHEMERIS_TYPE": 0,
        "CLASSIFICATION_TYPE": "U",
        "NORAD_CAT_ID": 2807,
        "ELEMENT_SET_NO": 999,
        "REV_AT_EPOCH": 88105,
        "BSTAR": 0.00018781,
        "MEAN_MOTION_DOT": 1.31e-06,
        "MEAN_MOTION_DDOT": 0,
        "norad_id": 2807,
        "name": "OPS 7218 (TRANSIT 16)",
        "group": "nnss",
        "longitude_deg": NaN,
        "latitude_deg": NaN,
        "alt_km": NaN,
        "orbit_class": "HEO",
        "timestamp": "2025-11-30T08:43:09.389881+00:00"
      },
      "geometry": {
        "type": "Point",
        "coordinates": [
          NaN,
          NaN
        ]
      }
    },
    {
      "type": "Feature",
      "properties": {
        "OBJECT_NAME": "OPS 4947 (TRANSIT 17)",
        "OBJECT_ID": "1967-092A",
        "EPOCH": "2025-11-30T03:49:04.290816",
        "MEAN_MOTION": 13.53448951,
        "ECCENTRICITY": 0.0045694,
        "INCLINATION": 89.2511,
        "RA_OF_ASC_NODE": 25.3944,
        "ARG_OF_PERICENTER": 272.3635,
        "MEAN_ANOMALY": 97.7035,
        "EPHEMERIS_TYPE": 0,
        "CLASSIFICATION_TYPE": "U",
        "NORAD_CAT_ID": 2965,
        "ELEMENT_SET_NO": 999,
        "REV_AT_EPOCH": 86927,
        "BSTAR": 0.00018285,
        "MEAN_MOTION_DOT": 1.34e-06,
        "MEAN_MOTION_DDOT": 0,
        "norad_id": 2965,
        "name": "OPS 4947 (TRANSIT 17)",
        "group": "nnss",
        "longitude_deg": NaN,
        "latitude_deg": NaN,
        "alt_km": NaN,
        "orbit_class": "HEO",
        "timestamp": "2025-11-30T08:43:09.389889+00:00"
      },
      "geometry": {
        "type": "Point",
        "coordinates": [
          NaN,
          NaN
        ]
      }
    },
    {
      "type": "Feature",
      "properties": {
        "OBJECT_NAME": "OPS 7034 (TRANSIT 18)",
        "OBJECT_ID": "1968-012A",
        "EPOCH": "2025-11-30T02:40:02.935776",
        "MEAN_MOTION": 13.51561636,
        "ECCENTRICITY": 0.0072691,
        "INCLINATION": 90.0266,
        "RA_OF_ASC_NODE": 273.604,
        "ARG_OF_PERICENTER": 205.9475,
        "MEAN_ANOMALY": 165.6318,
        "EPHEMERIS_TYPE": 0,
        "CLASSIFICATION_TYPE": "U",
        "NORAD_CAT_ID": 3133,
        "ELEMENT_SET_NO": 999,
        "REV_AT_EPOCH": 56748,
        "BSTAR": 0.00015924,
        "MEAN_MOTION_DOT": 1.15e-06,
        "MEAN_MOTION_DDOT": 0,
        "norad_id": 3133,
        "name": "OPS 7034 (TRANSIT 18)",
        "group": "nnss",
        "longitude_deg": NaN,
        "latitude_deg": NaN,
        "alt_km": NaN,
        "orbit_class": "HEO",
        "timestamp": "2025-11-30T08:43:09.389899+00:00"
      },
      "geometry": {
        "type": "Point",
        "coordinates": [
          NaN,
          NaN
        ]
      }
    },
    {
      "type": "Feature",
      "properties": {
        "OBJECT_NAME": "NNSS 19 (TRANSIT 19)",
        "OBJECT_ID": "1970-067A",
        "EPOCH": "2025-11-29T23:08:11.295168",
        "MEAN_MOTION": 13.51309797,
        "ECCENTRICITY": 0.0171462,
        "INCLINATION": 90.0056,
        "RA_OF_ASC_NODE": 234.5247,
        "ARG_OF_PERICENTER": 330.6397,
        "MEAN_ANOMALY": 28.5202,
        "EPHEMERIS_TYPE": 0,
        "CLASSIFICATION_TYPE": "U",
        "NORAD_CAT_ID": 4507,
        "ELEMENT_SET_NO": 999,
        "REV_AT_EPOCH": 72049,
        "BSTAR": 0.0002165,
        "MEAN_MOTION_DOT": 1.62e-06,
        "MEAN_MOTION_DDOT": 0,
        "norad_id": 4507,
        "name": "NNSS 19 (TRANSIT 19)",
        "group": "nnss",
        "longitude_deg": NaN,
        "latitude_deg": NaN,
        "alt_km": NaN,
        "orbit_class": "HEO",
        "timestamp": "2025-11-30T08:43:09.389905+00:00"
      },
      "geometry": {
        "type": "Point",
        "coordinates": [
          NaN,
          NaN
        ]
      }
    },
    {
      "type": "Feature",
      "properties": {
        "OBJECT_NAME": "NNSS 20 (TRANSIT 20)",
        "OBJECT_ID": "1973-081A",
        "EPOCH": "2025-11-29T20:17:07.705248",
        "MEAN_MOTION": 13.71425704,
        "ECCENTRICITY": 0.0156333,
        "INCLINATION": 89.8554,
        "RA_OF_ASC_NODE": 255.2477,
        "ARG_OF_PERICENTER": 116.5111,
        "MEAN_ANOMALY": 245.2178,
        "EPHEMERIS_TYPE": 0,
        "CLASSIFICATION_TYPE": "U",
        "NORAD_CAT_ID": 6909,
        "ELEMENT_SET_NO": 999,
        "REV_AT_EPOCH": 80184,
        "BSTAR": 0.00023742,
        "MEAN_MOTION_DOT": 2.45e-06,
        "MEAN_MOTION_DDOT": 0,
        "norad_id": 6909,
        "name": "NNSS 20 (TRANSIT 20)",
        "group": "nnss",
        "longitude_deg": NaN,
        "latitude_deg": NaN,
        "alt_km": NaN,
        "orbit_class": "HEO",
        "timestamp": "2025-11-30T08:43:09.389912+00:00"
      },
      "geometry": {
        "type": "Point",
        "coordinates": [
          NaN,
          NaN
        ]
      }
    },
    {
      "type": "Feature",
      "properties": {
        "OBJECT_NAME": "TRANSAT",
        "OBJECT_ID": "1977-106A",
        "EPOCH": "2025-11-30T01:13:02.036928",
        "MEAN_MOTION": 13.48940554,
        "ECCENTRICITY": 0.0024285,
        "INCLINATION": 89.6481,
        "RA_OF_ASC_NODE": 79.0461,
        "ARG_OF_PERICENTER": 227.129,
        "MEAN_ANOMALY": 306.6328,
        "EPHEMERIS_TYPE": 0,
        "CLASSIFICATION_TYPE": "U",
        "NORAD_CAT_ID": 10457,
        "ELEMENT_SET_NO": 999,
        "REV_AT_EPOCH": 36572,
        "BSTAR": 0.00012423,
        "MEAN_MOTION_DOT": 8.8e-07,
        "MEAN_MOTION_DDOT": 0,
        "norad_id": 10457,
        "name": "TRANSAT",
        "group": "nnss",
        "longitude_deg": NaN,
        "latitude_deg": NaN,
        "alt_km": NaN,
        "orbit_class": "HEO",
        "timestamp": "2025-11-30T08:43:09.389920+00:00"
      },
      "geometry": {
        "type": "Point",
        "coordinates": [
          NaN,
          NaN
        ]
      }
    },
    {
      "type": "Feature",
      "properties": {
        "OBJECT_NAME": "NOVA 1",
        "OBJECT_ID": "1981-044A",
        "EPOCH": "2025-11-29T21:21:26.563392",
        "MEAN_MOTION": 13.23276454,
        "ECCENTRICITY": 0.0015482,
        "INCLINATION": 89.8519,
        "RA_OF_ASC_NODE": 91.5669,
        "ARG_OF_PERICENTER": 135.6785,
        "MEAN_ANOMALY": 344.6853,
        "EPHEMERIS_TYPE": 0,
        "CLASSIFICATION_TYPE": "U",
        "NORAD_CAT_ID": 12458,
        "ELEMENT_SET_NO": 999,
        "REV_AT_EPOCH": 15016,
        "BSTAR": 0.00011029,
        "MEAN_MOTION_DOT": 5.6e-07,
        "MEAN_MOTION_DDOT": 0,
        "norad_id": 12458,
        "name": "NOVA 1",
        "group": "nnss",
        "longitude_deg": NaN,
        "latitude_deg": NaN,
        "alt_km": NaN,
        "orbit_class": "HEO",
        "timestamp": "2025-11-30T08:43:09.389930+00:00"
      },
      "geometry": {
        "type": "Point",
        "coordinates": [
          NaN,
          NaN
        ]
      }
    },
    {
      "type": "Feature",
      "properties": {
        "OBJECT_NAME": "NOVA 3",
        "OBJECT_ID": "1984-110A",
        "EPOCH": "2025-11-29T20:07:04.811232",
        "MEAN_MOTION": 13.23042404,
        "ECCENTRICITY": 0.0031545,
        "INCLINATION": 90.1223,
        "RA_OF_ASC_NODE": 80.3826,
        "ARG_OF_PERICENTER": 8.1351,
        "MEAN_ANOMALY": 109.9053,
        "EPHEMERIS_TYPE": 0,
        "CLASSIFICATION_TYPE": "U",
        "NORAD_CAT_ID": 15362,
        "ELEMENT_SET_NO": 999,
        "REV_AT_EPOCH": 98528,
        "BSTAR": 0.00010429,
        "MEAN_MOTION_DOT": 5.2e-07,
        "MEAN_MOTION_DDOT": 0,
        "norad_id": 15362,
        "name": "NOVA 3",
        "group": "nnss",
        "longitude_deg": NaN,
        "latitude_deg": NaN,
        "alt_km": NaN,
        "orbit_class": "HEO",
        "timestamp": "2025-11-30T08:43:09.389938+00:00"
      },
      "geometry": {
        "type": "Point",
        "coordinates": [
          NaN,
          NaN
        ]
      }
    },
    {
      "type": "Feature",
      "properties": {
        "OBJECT_NAME": "OSCAR 30",
        "OBJECT_ID": "1985-066A",
        "EPOCH": "2025-11-30T02:35:52.850112",
        "MEAN_MOTION": 13.3607488,
        "ECCENTRICITY": 0.016931,
        "INCLINATION": 90.1643,
        "RA_OF_ASC_NODE": 99.6409,
        "ARG_OF_PERICENTER": 119.1671,
        "MEAN_ANOMALY": 53.0583,
        "EPHEMERIS_TYPE": 0,
        "CLASSIFICATION_TYPE": "U",
        "NORAD_CAT_ID": 15935,
        "ELEMENT_SET_NO": 999,
        "REV_AT_EPOCH": 96284,
        "BSTAR": 0.00017807,
        "MEAN_MOTION_DOT": 1.09e-06,
        "MEAN_MOTION_DDOT": 0,
        "norad_id": 15935,
        "name": "OSCAR 30",
        "group": "nnss",
        "longitude_deg": NaN,
        "latitude_deg": NaN,
        "alt_km": NaN,
        "orbit_class": "HEO",
        "timestamp": "2025-11-30T08:43:09.389945+00:00"
      },
      "geometry": {
        "type": "Point",
        "coordinates": [
          NaN,
          NaN
        ]
      }
    }
  ]
}